IRIDIUM 26              
1 24903U 97043A   25180.30107784  .00000277  00000+0  86726-4 0  9995
2 24903  86.3957 105.5348 0002402  81.9572 278.1898 14.37153424458480
IRIDIUM 22              
1 24907U 97043E   25180.31059681  .00000247  00000+0  78154-4 0  9995
2 24907  86.3963 109.0808 0002213  83.4167 276.7282 14.35964833458515
DUMMY MASS 1            
1 24925U 97048A   25180.59751775  .00000275  00000+0  27509-4 0  9992
2 24925  86.3359 129.5928 0009039  99.2188 261.0060 14.86993843506979
DUMMY MASS 2            
1 24926U 97048B   25180.29250896  .00000281  00000+0  28328-4 0  9995
2 24926  86.3360 131.3429 0009688 109.2835 250.9439 14.86745804506700
IRIDIUM 29              
1 24944U 97051A   25180.39888228  .00000290  00000+0  92047-4 0  9995
2 24944  86.3975 138.7772 0002101  89.3496 270.7942 14.36475827455025
IRIDIUM 33              
1 24946U 97051C   25180.39410215  .00000228  00000+0  73344-4 0  9994
2 24946  86.3890 138.0405 0009509  49.0412 311.1606 14.34898558454494
IRIDIUM 28              
1 24948U 97051E   25180.36487000  .00000235  00000+0  72155-4 0  9996
2 24948  86.3980 136.3012 0002676  79.6778 280.4721 14.37392674455592
IRIDIUM 36              
1 24967U 97056C   25180.53512950  .00000255  00000+0  78441-4 0  9990
2 24967  86.3991 167.8136 0002236  81.8447 278.3005 14.37617294453992
